{
"type": "FeatureCollection",
"name": "ga_selected",
"crs": { "type": "name", "properties": { "name": "urn:ogc:def:crs:OGC:1.3:CRS84" } },
"features": [
{ "type": "Feature", "properties": { "CENTER_LON_x": -7.6603450828342101, "CENTER_LAT_x": 33.570794320018251, "TOTAL_POP_x": 672132, "traffic_score": 61.784037702957903, "num_competitors": 5.0, "num_antenna_3g4g": 8.0, "Villa": 318802.10379388463, "appartement": 20007.344343044904, "non-residentiel": 29502.74912501678, "traditionnel": 4073.1523450434743, "attractiveness": 28435.815917344815, "expected_demand": 13898.463262609912, "huff_prob": 0.0014695883970685249, "demande_attendue": 13898.463262609912, "cost": 95795, "selected": 1 }, "geometry": { "type": "Point", "coordinates": [ -7.66034508283421, 33.570794320018251 ] } },
{ "type": "Feature", "properties": { "CENTER_LON_x": -7.6398102695575716, "CENTER_LAT_x": 33.592175729544245, "TOTAL_POP_x": 662641, "traffic_score": 62.354559761618042, "num_competitors": 19.0, "num_antenna_3g4g": 43.0, "Villa": 92521.731816112835, "appartement": 845227.08604702947, "non-residentiel": 134177.87974041142, "traditionnel": 105196.09234636012, "attractiveness": 103038.49077244943, "expected_demand": 315767.51833618723, "huff_prob": 0.033388459741904047, "demande_attendue": 315767.51833618723, "cost": 80860, "selected": 0 }, "geometry": { "type": "Point", "coordinates": [ -7.639810269557572, 33.592175729544245 ] } },
{ "type": "Feature", "properties": { "CENTER_LON_x": -7.6293565905852816, "CENTER_LAT_x": 33.586978428250148, "TOTAL_POP_x": 843732, "traffic_score": 62.438865087749193, "num_competitors": 17.0, "num_antenna_3g4g": 57.0, "Villa": 32376.800695095048, "appartement": 517449.19816872088, "non-residentiel": 99426.715007603518, "traditionnel": 142590.09866220519, "attractiveness": 67747.005781880114, "expected_demand": 138474.80431565462, "huff_prob": 0.014641976012994566, "demande_attendue": 138474.80431565462, "cost": 183694, "selected": 0 }, "geometry": { "type": "Point", "coordinates": [ -7.629356590585282, 33.586978428250148 ] } },
{ "type": "Feature", "properties": { "CENTER_LON_x": -7.6417677428911057, "CENTER_LAT_x": 33.593091755555065, "TOTAL_POP_x": 531838, "traffic_score": 62.519831185728599, "num_competitors": 19.0, "num_antenna_3g4g": 42.0, "Villa": 131173.5749839372, "appartement": 697675.87014193309, "non-residentiel": 112565.91195501796, "traditionnel": 71594.068414138324, "attractiveness": 88255.086682936148, "expected_demand": 269666.24746840697, "huff_prob": 0.028513827814814239, "demande_attendue": 269666.24746840697, "cost": 199879, "selected": 0 }, "geometry": { "type": "Point", "coordinates": [ -7.641767742891106, 33.593091755555065 ] } },
{ "type": "Feature", "properties": { "CENTER_LON_x": -7.6363862701591367, "CENTER_LAT_x": 33.587507438751217, "TOTAL_POP_x": 671277, "traffic_score": 63.992916110889212, "num_competitors": 21.0, "num_antenna_3g4g": 46.0, "Villa": 31569.499427897637, "appartement": 847084.33251928817, "non-residentiel": 162745.97217202306, "traditionnel": 132370.36791204559, "attractiveness": 101093.56031159248, "expected_demand": 406506.14536776184, "huff_prob": 0.04298293295321718, "demande_attendue": 406506.14536776184, "cost": 190268, "selected": 0 }, "geometry": { "type": "Point", "coordinates": [ -7.636386270159137, 33.587507438751217 ] } },
{ "type": "Feature", "properties": { "CENTER_LON_x": -7.6546060458259344, "CENTER_LAT_x": 33.595695578417761, "TOTAL_POP_x": 568559, "traffic_score": 64.287678928678133, "num_competitors": 5.0, "num_antenna_3g4g": 23.0, "Villa": 492094.40423518798, "appartement": 79352.462679058794, "non-residentiel": 40347.514267870472, "traditionnel": 13741.289569428143, "attractiveness": 49225.733977364747, "expected_demand": 298828.29543542507, "huff_prob": 0.03159734910183154, "demande_attendue": 298828.29543542507, "cost": 156820, "selected": 0 }, "geometry": { "type": "Point", "coordinates": [ -7.654606045825934, 33.595695578417761 ] } },
{ "type": "Feature", "properties": { "CENTER_LON_x": -7.6639028454623768, "CENTER_LAT_x": 33.562660935112149, "TOTAL_POP_x": 705077, "traffic_score": 58.070657167394018, "num_competitors": 8.0, "num_antenna_3g4g": 4.0, "Villa": 11889.038764099179, "appartement": 111630.24276158396, "non-residentiel": 7497.4864694898142, "traditionnel": 58695.228326605204, "attractiveness": 16972.91303709639, "expected_demand": 5614.356433388667, "huff_prob": 0.00059364786707833794, "demande_attendue": 5614.356433388667, "cost": 134886, "selected": 0 }, "geometry": { "type": "Point", "coordinates": [ -7.663902845462377, 33.562660935112149 ] } },
{ "type": "Feature", "properties": { "CENTER_LON_x": -7.6796285467858096, "CENTER_LAT_x": 33.586509645108173, "TOTAL_POP_x": 400513, "traffic_score": 62.695886040422749, "num_competitors": 0.0, "num_antenna_3g4g": 30.0, "Villa": 192967.43007892865, "appartement": 865.30347901421533, "non-residentiel": 12759.544960624333, "traditionnel": 1037.678553077345, "attractiveness": 15879.903909184493, "expected_demand": 4586.1046067979942, "huff_prob": 0.00048492311635806241, "demande_attendue": 4586.1046067979942, "cost": 86265, "selected": 0 }, "geometry": { "type": "Point", "coordinates": [ -7.67962854678581, 33.586509645108173 ] } },
{ "type": "Feature", "properties": { "CENTER_LON_x": -7.6437810240536006, "CENTER_LAT_x": 33.593126590496674, "TOTAL_POP_x": 557074, "traffic_score": 62.913501313747823, "num_competitors": 16.0, "num_antenna_3g4g": 37.0, "Villa": 197600.43752700801, "appartement": 599002.29483932373, "non-residentiel": 118223.61802420506, "traditionnel": 54108.658146957874, "attractiveness": 82416.547873662174, "expected_demand": 434049.69947152358, "huff_prob": 0.045895318787542598, "demande_attendue": 434049.69947152358, "cost": 162386, "selected": 0 }, "geometry": { "type": "Point", "coordinates": [ -7.643781024053601, 33.593126590496674 ] } },
{ "type": "Feature", "properties": { "CENTER_LON_x": -7.6415088965878368, "CENTER_LAT_x": 33.569165997823433, "TOTAL_POP_x": 822987, "traffic_score": 62.408560840642792, "num_competitors": 16.0, "num_antenna_3g4g": 27.0, "Villa": 6826.0999306942549, "appartement": 268180.75776551594, "non-residentiel": 51983.96376393261, "traditionnel": 3486.1828894581304, "attractiveness": 28697.029817652601, "expected_demand": 22152.866118261929, "huff_prob": 0.0023423881039274525, "demande_attendue": 22152.866118261929, "cost": 117194, "selected": 0 }, "geometry": { "type": "Point", "coordinates": [ -7.641508896587837, 33.569165997823433 ] } },
{ "type": "Feature", "properties": { "CENTER_LON_x": -7.6386823203515259, "CENTER_LAT_x": 33.591183964048099, "TOTAL_POP_x": 614595, "traffic_score": 62.555237022040203, "num_competitors": 16.0, "num_antenna_3g4g": 45.0, "Villa": 66469.606516782311, "appartement": 891504.76781972218, "non-residentiel": 141053.92744559539, "traditionnel": 129338.05167622918, "attractiveness": 107651.75679558056, "expected_demand": 386793.90387552179, "huff_prob": 0.0408986103320867, "demande_attendue": 386793.90387552179, "cost": 167498, "selected": 0 }, "geometry": { "type": "Point", "coordinates": [ -7.638682320351526, 33.591183964048099 ] } },
{ "type": "Feature", "properties": { "CENTER_LON_x": -7.6439118958510663, "CENTER_LAT_x": 33.588787024509465, "TOTAL_POP_x": 603455, "traffic_score": 64.247390018762403, "num_competitors": 12.0, "num_antenna_3g4g": 42.0, "Villa": 206237.75961395688, "appartement": 643032.51764323434, "non-residentiel": 141108.15383010625, "traditionnel": 90394.918351506902, "attractiveness": 90872.630925667356, "expected_demand": 618091.22474929295, "huff_prob": 0.065355404770905803, "demande_attendue": 618091.22474929295, "cost": 192727, "selected": 1 }, "geometry": { "type": "Point", "coordinates": [ -7.643911895851066, 33.588787024509465 ] } },
{ "type": "Feature", "properties": { "CENTER_LON_x": -7.5852534755672316, "CENTER_LAT_x": 33.6021765037015, "TOTAL_POP_x": 930189, "traffic_score": 61.623572393881005, "num_competitors": 4.0, "num_antenna_3g4g": 70.0, "Villa": 1251.4015605852039, "appartement": 281233.75320217217, "non-residentiel": 137658.12960332658, "traditionnel": 14085.395525626594, "attractiveness": 32122.987572279166, "expected_demand": 271286.8310699201, "huff_prob": 0.028685184231150587, "demande_attendue": 271286.8310699201, "cost": 124131, "selected": 1 }, "geometry": { "type": "Point", "coordinates": [ -7.585253475567232, 33.6021765037015 ] } },
{ "type": "Feature", "properties": { "CENTER_LON_x": -7.6317615790530482, "CENTER_LAT_x": 33.583845331600394, "TOTAL_POP_x": 814579, "traffic_score": 61.418054758971962, "num_competitors": 21.0, "num_antenna_3g4g": 51.0, "Villa": 33601.739663420063, "appartement": 627606.75832588458, "non-residentiel": 116743.49501385375, "traditionnel": 180172.80107862083, "attractiveness": 82212.233505918543, "expected_demand": 161275.62730018544, "huff_prob": 0.017052877439184874, "demande_attendue": 161275.62730018544, "cost": 140263, "selected": 0 }, "geometry": { "type": "Point", "coordinates": [ -7.631761579053048, 33.583845331600394 ] } },
{ "type": "Feature", "properties": { "CENTER_LON_x": -7.6344493866320766, "CENTER_LAT_x": 33.583158733359447, "TOTAL_POP_x": 727096, "traffic_score": 61.986234008264283, "num_competitors": 22.0, "num_antenna_3g4g": 46.0, "Villa": 37809.794245529221, "appartement": 763333.20638203423, "non-residentiel": 144220.5559254151, "traditionnel": 183538.69403284535, "attractiveness": 96939.927377483764, "expected_demand": 195375.17485470162, "huff_prob": 0.020658477460175472, "demande_attendue": 195375.17485470162, "cost": 96023, "selected": 0 }, "geometry": { "type": "Point", "coordinates": [ -7.634449386632077, 33.583158733359447 ] } },
{ "type": "Feature", "properties": { "CENTER_LON_x": -7.6387284262467592, "CENTER_LAT_x": 33.59126161072485, "TOTAL_POP_x": 614421, "traffic_score": 62.527671334884623, "num_competitors": 16.0, "num_antenna_3g4g": 45.0, "Villa": 67469.787505841145, "appartement": 888043.89735242643, "non-residentiel": 140983.01226802371, "traditionnel": 127353.348072158, "attractiveness": 107225.48274467677, "expected_demand": 378495.65683596994, "huff_prob": 0.040021174651975147, "demande_attendue": 378495.65683596994, "cost": 121090, "selected": 0 }, "geometry": { "type": "Point", "coordinates": [ -7.638728426246759, 33.59126161072485 ] } },
{ "type": "Feature", "properties": { "CENTER_LON_x": -7.6376092487665215, "CENTER_LAT_x": 33.574228739967936, "TOTAL_POP_x": 844598, "traffic_score": 60.345793588118731, "num_competitors": 19.0, "num_antenna_3g4g": 37.0, "Villa": 33678.279262837175, "appartement": 469798.18600546272, "non-residentiel": 107551.39472594039, "traditionnel": 151211.85656918611, "attractiveness": 63935.933810023984, "expected_demand": 76547.317389057222, "huff_prob": 0.0080939199777800338, "demande_attendue": 76547.317389057222, "cost": 147221, "selected": 0 }, "geometry": { "type": "Point", "coordinates": [ -7.637609248766521, 33.574228739967936 ] } },
{ "type": "Feature", "properties": { "CENTER_LON_x": -7.6687167, "CENTER_LAT_x": 33.5717017, "TOTAL_POP_x": 624107, "traffic_score": 54.595705439826858, "num_competitors": 9.0, "num_antenna_3g4g": 16.0, "Villa": 342927.80814585561, "appartement": 101664.56651610658, "non-residentiel": 47560.832706416673, "traditionnel": 206120.63453641717, "attractiveness": 55054.517646680775, "expected_demand": 24264.108441249991, "huff_prob": 0.0025656255340403282, "demande_attendue": 24264.108441249991, "cost": 144820, "selected": 0 }, "geometry": { "type": "Point", "coordinates": [ -7.6687167, 33.5717017 ] } },
{ "type": "Feature", "properties": { "CENTER_LON_x": -7.6055052618265346, "CENTER_LAT_x": 33.591436963557626, "TOTAL_POP_x": 1442621, "traffic_score": 61.275994748675416, "num_competitors": 16.0, "num_antenna_3g4g": 100.0, "Villa": 42910.508422893727, "appartement": 613634.69529076526, "non-residentiel": 337024.59243516903, "traditionnel": 19829.63340190196, "attractiveness": 73142.29172245074, "expected_demand": 1847687.6299265479, "huff_prob": 0.1953698226229077, "demande_attendue": 1847687.6299265479, "cost": 80769, "selected": 1 }, "geometry": { "type": "Point", "coordinates": [ -7.605505261826535, 33.591436963557626 ] } },
{ "type": "Feature", "properties": { "CENTER_LON_x": -7.6385764219509609, "CENTER_LAT_x": 33.597690065453435, "TOTAL_POP_x": 639432, "traffic_score": 60.964661238931512, "num_competitors": 18.0, "num_antenna_3g4g": 35.0, "Villa": 33008.66442994339, "appartement": 623383.53553548548, "non-residentiel": 99371.392638745878, "traditionnel": 37312.34651852079, "attractiveness": 69965.553447510334, "expected_demand": 113371.81072257285, "huff_prob": 0.011987648882071825, "demande_attendue": 113371.81072257285, "cost": 139735, "selected": 0 }, "geometry": { "type": "Point", "coordinates": [ -7.638576421950961, 33.597690065453435 ] } },
{ "type": "Feature", "properties": { "CENTER_LON_x": -7.6123241025230524, "CENTER_LAT_x": 33.594469981443474, "TOTAL_POP_x": 895424, "traffic_score": 55.457342923039938, "num_competitors": 13.0, "num_antenna_3g4g": 74.0, "Villa": 429.76809776782704, "appartement": 522015.0152607059, "non-residentiel": 244870.02784571241, "traditionnel": 174930.89308706418, "attractiveness": 71144.199313502162, "expected_demand": 418063.47953094239, "huff_prob": 0.044204976273139178, "demande_attendue": 418063.47953094239, "cost": 142955, "selected": 0 }, "geometry": { "type": "Point", "coordinates": [ -7.612324102523052, 33.594469981443474 ] } },
{ "type": "Feature", "properties": { "CENTER_LON_x": -7.6281010631837542, "CENTER_LAT_x": 33.590570942192372, "TOTAL_POP_x": 994827, "traffic_score": 60.223076887792935, "num_competitors": 15.0, "num_antenna_3g4g": 58.0, "Villa": 10627.036494117689, "appartement": 494854.50405027031, "non-residentiel": 118948.1661651731, "traditionnel": 68289.705382969682, "attractiveness": 58193.868847719437, "expected_demand": 117641.15522106856, "huff_prob": 0.012439078584732309, "demande_attendue": 117641.15522106856, "cost": 144925, "selected": 0 }, "geometry": { "type": "Point", "coordinates": [ -7.628101063183754, 33.590570942192372 ] } },
{ "type": "Feature", "properties": { "CENTER_LON_x": -7.6324736322758593, "CENTER_LAT_x": 33.592677237229097, "TOTAL_POP_x": 760837, "traffic_score": 60.722567415277553, "num_competitors": 17.0, "num_antenna_3g4g": 53.0, "Villa": 2411.9603629156391, "appartement": 641510.2028070112, "non-residentiel": 115510.61414776384, "traditionnel": 75306.225775628031, "attractiveness": 72694.178096593721, "expected_demand": 148444.64355533777, "huff_prob": 0.015696161629809694, "demande_attendue": 148444.64355533777, "cost": 147969, "selected": 0 }, "geometry": { "type": "Point", "coordinates": [ -7.632473632275859, 33.592677237229097 ] } },
{ "type": "Feature", "properties": { "CENTER_LON_x": -7.6218727551669891, "CENTER_LAT_x": 33.583772031337951, "TOTAL_POP_x": 998161, "traffic_score": 60.546239820559506, "num_competitors": 19.0, "num_antenna_3g4g": 69.0, "Villa": 44439.32038375509, "appartement": 428446.99439333711, "non-residentiel": 135470.2390897357, "traditionnel": 25091.167794815377, "attractiveness": 51132.709835369205, "expected_demand": 126275.92993614549, "huff_prob": 0.013352097851165569, "demande_attendue": 126275.92993614549, "cost": 85311, "selected": 0 }, "geometry": { "type": "Point", "coordinates": [ -7.621872755166989, 33.583772031337951 ] } },
{ "type": "Feature", "properties": { "CENTER_LON_x": -7.5920856323167394, "CENTER_LAT_x": 33.59589052655059, "TOTAL_POP_x": 1126746, "traffic_score": 61.491767597728767, "num_competitors": 11.0, "num_antenna_3g4g": 100.0, "Villa": 3962.7403714850238, "appartement": 435517.83210941165, "non-residentiel": 272827.08755853795, "traditionnel": 8847.3414352685249, "attractiveness": 50053.304448551637, "expected_demand": 1282809.7686416509, "huff_prob": 0.13564106448470173, "demande_attendue": 1282809.7686416509, "cost": 183355, "selected": 0 }, "geometry": { "type": "Point", "coordinates": [ -7.592085632316739, 33.59589052655059 ] } },
{ "type": "Feature", "properties": { "CENTER_LON_x": -7.6363862701591367, "CENTER_LAT_x": 33.587507438751217, "TOTAL_POP_x": 671277, "traffic_score": 63.992916110889212, "num_competitors": 21.0, "num_antenna_3g4g": 46.0, "Villa": 31569.499427897637, "appartement": 847084.33251928817, "non-residentiel": 162745.97217202306, "traditionnel": 132370.36791204559, "attractiveness": 101093.56031159248, "expected_demand": 406506.14536776184, "huff_prob": 0.04298293295321718, "demande_attendue": 406506.14536776184, "cost": 184724, "selected": 0 }, "geometry": { "type": "Point", "coordinates": [ -7.636386270159137, 33.587507438751217 ] } },
{ "type": "Feature", "properties": { "CENTER_LON_x": -7.6346427348544479, "CENTER_LAT_x": 33.582830941143456, "TOTAL_POP_x": 684297, "traffic_score": 62.10729776097233, "num_competitors": 24.0, "num_antenna_3g4g": 46.0, "Villa": 38976.595761939439, "appartement": 752991.89375740231, "non-residentiel": 144442.34583667846, "traditionnel": 183541.24075189911, "attractiveness": 96003.410038021131, "expected_demand": 190320.91280752269, "huff_prob": 0.020124052558664229, "demande_attendue": 190320.91280752269, "cost": 163104, "selected": 0 }, "geometry": { "type": "Point", "coordinates": [ -7.634642734854448, 33.582830941143456 ] } },
{ "type": "Feature", "properties": { "CENTER_LON_x": -7.617257037307092, "CENTER_LAT_x": 33.58714849764602, "TOTAL_POP_x": 1323522, "traffic_score": 59.927457157982019, "num_competitors": 13.0, "num_antenna_3g4g": 92.0, "Villa": 60704.12367139526, "appartement": 563862.56852469174, "non-residentiel": 170987.33091290877, "traditionnel": 27674.127267054457, "attractiveness": 66895.085410092826, "expected_demand": 248844.75974827568, "huff_prob": 0.026312216299566496, "demande_attendue": 248844.75974827568, "cost": 133707, "selected": 0 }, "geometry": { "type": "Point", "coordinates": [ -7.617257037307092, 33.58714849764602 ] } },
{ "type": "Feature", "properties": { "CENTER_LON_x": -7.6381633150366106, "CENTER_LAT_x": 33.583585751918378, "TOTAL_POP_x": 629259, "traffic_score": 64.082756775030418, "num_competitors": 23.0, "num_antenna_3g4g": 41.0, "Villa": 48881.295020530953, "appartement": 873684.4272942316, "non-residentiel": 185062.71428431969, "traditionnel": 165168.33830901232, "attractiveness": 108207.95837066678, "expected_demand": 266078.17174184986, "huff_prob": 0.028134433751174331, "demande_attendue": 266078.17174184986, "cost": 165305, "selected": 0 }, "geometry": { "type": "Point", "coordinates": [ -7.638163315036611, 33.583585751918378 ] } },
{ "type": "Feature", "properties": { "CENTER_LON_x": -7.6417677428911057, "CENTER_LAT_x": 33.593091755555065, "TOTAL_POP_x": 531838, "traffic_score": 62.519831185728599, "num_competitors": 19.0, "num_antenna_3g4g": 42.0, "Villa": 131173.5749839372, "appartement": 697675.87014193309, "non-residentiel": 112565.91195501796, "traditionnel": 71594.068414138324, "attractiveness": 88255.086682936148, "expected_demand": 269666.24746840697, "huff_prob": 0.028513827814814239, "demande_attendue": 269666.24746840697, "cost": 108693, "selected": 0 }, "geometry": { "type": "Point", "coordinates": [ -7.641767742891106, 33.593091755555065 ] } }
]
}
